[{"OBJECT_NAME":"STARLINK-33555","OBJECT_ID":"2024-220S","EPOCH":"2026-03-09T09:20:26.941344","MEAN_MOTION":15.27602636,"ECCENTRICITY":0.00014517,"INCLINATION":42.9997,"RA_OF_ASC_NODE":207.3737,"ARG_OF_PERICENTER":264.8073,"MEAN_ANOMALY":95.2613,"EPHEMERIS_TYPE":0,"CLASSIFICATION_TYPE":"U","NORAD_CAT_ID":62104,"ELEMENT_SET_NO":999,"REV_AT_EPOCH":7311,"BSTAR":0.0013058826,"MEAN_MOTION_DOT":0.00035873,"MEAN_MOTION_DDOT":0},{"OBJECT_NAME":"COSMOS 2251 DEB","OBJECT_ID":"1993-036BXP","EPOCH":"2026-03-04T07:23:49.847712","MEAN_MOTION":15.24789556,"ECCENTRICITY":0.00190834,"INCLINATION":73.9759,"RA_OF_ASC_NODE":64.3004,"ARG_OF_PERICENTER":239.4537,"MEAN_ANOMALY":120.4779,"EPHEMERIS_TYPE":0,"CLASSIFICATION_TYPE":"U","NORAD_CAT_ID":47059,"ELEMENT_SET_NO":999,"REV_AT_EPOCH":9543,"BSTAR":0.0048704033,"MEAN_MOTION_DOT":0.00123422,"MEAN_MOTION_DDOT":0}]
